IRIDIUM 36              
1 24967U 97056C   25017.58121070  .00000712  00000+0  23217-3 0  9991
2 24967  86.3945 236.2179 0002101  93.0005 267.1433 14.37357195430587
IRIDIUM 39              
1 25042U 97069D   25017.24382911  .00001125  00000+0  29170-3 0  9999
2 25042  86.3903 275.8573 0020153  90.2215 270.1299 14.48830396427101
IRIDIUM 38              
1 25043U 97069E   25017.51770465  .00000856  00000+0  27760-3 0  9998
2 25043  86.3966 296.5723 0001129 143.7839 216.3436 14.37863014424301
IRIDIUM 42              
1 25077U 97077A   25017.33985194  .00000828  00000+0  27795-3 0  9998
2 25077  86.3977 302.6326 0001505  90.8000 269.3369 14.36118307419548
IRIDIUM 44              
1 25078U 97077B   25017.28371758  .00000817  00000+0  25344-3 0  9994
2 25078  86.3955 284.9713 0003081 120.8530 239.2972 14.39987071421982
IRIDIUM 45              
1 25104U 97082A   25017.31340230  .00028322  00000+0  12094-2 0  9993
2 25104  86.3632 120.7594 0133329 173.6190 186.6791 15.14933449429149
IRIDIUM 24              
1 25105U 97082B   25017.58876670  .00001028  00000+0  30845-3 0  9994
2 25105  86.3949 144.1578 0010500 206.5309 153.5355 14.41819804421515
IRIDIUM 51              
1 25262U 98018A   25017.56227429  .00040426  00000+0  12506-2 0  9996
2 25262  86.3922 129.6846 0110800 104.1531 257.2058 15.27404774423942
